     2.100          NAVIGATION                              RINEX VERSION / TYPE
fic2rin                                 09/24/2014 00:19:23 PGM / RUN BY / DATE
                                                            END OF HEADER
28 14  9 23 18  0  0.0  .386413186789D-03  .272848410532D-11  .000000000000D+00
     .840000000000D+02  .742500000000D+02  .380480134239D-08 -.111787040288D+01
     .417046248913D-05  .193245788105D-01  .106636434793D-04  .515368391800D+04
     .237600000000D+06 -.158324837685D-06  .423865859417D+00  .428408384323D-06
     .987749267150D+00  .193718750000D+03 -.170820675028D+01 -.789354308347D-08
     .512521348571D-09  .100000000000D+01  .181100000000D+04  .000000000000D+00
     .240000000000D+01  .000000000000D+00 -.107102096081D-07  .840000000000D+02
     .230406000000D+06  .400000000000D+01
29 14  9 23 18  0  0.0  .562274362892D-03  .250111042988D-11  .000000000000D+00
     .460000000000D+02  .161875000000D+02  .490806158332D-08  .734661558951D+00
     .927597284317D-06  .115246127825D-02  .311620533466D-05  .515362679863D+04
     .237600000000D+06  .186264514923D-08  .145762414593D+01 -.242143869400D-07
     .970204072231D+00  .326968750000D+03 -.792383490433D+00 -.840463580110D-08
     .176793078427D-09  .100000000000D+01  .181100000000D+04  .000000000000D+00
     .240000000000D+01  .000000000000D+00 -.977888703346D-08  .460000000000D+02
     .230406000000D+06  .400000000000D+01
30 14  9 23 18  0  0.0 -.653057359159D-04 -.420641299570D-11  .000000000000D+00
     .360000000000D+02 -.685000000000D+02  .436518182734D-08  .142927403265D+01
    -.347197055817D-05  .104421074502D-02  .101644545794D-04  .515366115761D+04
     .237600000000D+06 -.223517417908D-07 -.611621530435D+00  .465661287308D-07
     .958232707839D+00  .181718750000D+03  .312731027801D+01 -.798533262116D-08
    -.423946230491D-09  .100000000000D+01  .181100000000D+04  .000000000000D+00
     .240000000000D+01  .000000000000D+00  .325962901115D-08  .360000000000D+02
     .230406000000D+06  .400000000000D+01
31 14  9 23 18  0  0.0  .331374350935D-03 -.454747350886D-12  .000000000000D+00
     .760000000000D+02 -.768125000000D+02  .392694928749D-08  .153239441854D+01
    -.386871397495D-05  .804590201005D-02  .919960439205D-05  .515363287544D+04
     .237600000000D+06  .108033418655D-06 -.657737805100D+00  .108033418655D-06
     .977487762872D+00  .208343750000D+03 -.631341249211D+00 -.774639409698D-08
    -.433589489314D-09  .100000000000D+01  .181100000000D+04  .000000000000D+00
     .240000000000D+01  .000000000000D+00 -.130385160446D-07  .760000000000D+02
     .230406000000D+06  .400000000000D+01
 3 14  9 23 18  0  0.0 -.835151411593D-03 -.312638803734D-10  .000000000000D+00
     .930000000000D+02  .450937500000D+02  .399480925698D-08 -.195368813150D+01
     .257231295109D-05  .106791828293D-01  .112559646368D-04  .515372126579D+04
     .237600000000D+06  .819563865662D-07  .257172058443D+00  .201165676117D-06
     .967702777825D+00  .163093750000D+03  .171686011992D+01 -.771067832356D-08
     .332156692802D-09  .100000000000D+01  .181100000000D+04  .000000000000D+00
     .685000000000D+01  .630000000000D+02 -.419095158577D-08  .930000000000D+02
     .235206000000D+06  .400000000000D+01
 7 14  9 23 17 59 28.0  .394824892282D-03  .409272615798D-11  .000000000000D+00
     .120000000000D+02 -.680000000000D+02  .413981529707D-08  .156591799824D+01
    -.344030559063D-05  .795786408707D-02  .978633761406D-05  .515361302185D+04
     .237568000000D+06 -.651925802231D-07 -.664405427290D+00  .106170773506D-06
     .972561588122D+00  .198562500000D+03 -.278225026922D+01 -.790568644643D-08
    -.532879339421D-09  .100000000000D+01  .181100000000D+04  .000000000000D+00
     .240000000000D+01  .000000000000D+00 -.107102096081D-07  .120000000000D+02
     .235716000000D+06  .400000000000D+01
31 14  9 23 17 59 44.0  .331376213580D-03 -.454747350886D-12  .000000000000D+00
     .900000000000D+01 -.768125000000D+02  .392730644522D-08  .153006045270D+01
    -.386871397495D-05  .804590049665D-02  .919960439205D-05  .515363287163D+04
     .237584000000D+06  .108033418655D-06 -.657737670511D+00  .108033418655D-06
     .977487748243D+00  .208343750000D+03 -.631341022459D+00 -.774639409698D-08
    -.433946647048D-09  .100000000000D+01  .181100000000D+04  .000000000000D+00
     .240000000000D+01  .000000000000D+00 -.130385160446D-07  .900000000000D+01
     .235956000000D+06  .400000000000D+01
 7 14  9 23 19 59 28.0  .394854694605D-03  .409272615798D-11  .000000000000D+00
     .130000000000D+02 -.748125000000D+02  .407552690491D-08  .261602830467D+01
    -.392645597458D-05  .795722915791D-02  .956282019615D-05  .515361496925D+04
     .244768000000D+06 -.117346644402D-06 -.664462491336D+00 -.428408384323D-07
     .972558492588D+00  .202031250000D+03 -.278214565156D+01 -.778282418587D-08
    -.456447584303D-09  .100000000000D+01  .181100000000D+04  .000000000000D+00
     .240000000000D+01  .000000000000D+00 -.107102096081D-07  .130000000000D+02
     .237606000000D+06  .400000000000D+01
31 14  9 23 19 59 44.0  .331372953951D-03 -.454747350886D-12  .000000000000D+00
     .100000000000D+02 -.824687500000D+02  .397980863215D-08  .258032892252D+01
    -.408291816711D-05  .804580363911D-02  .934675335884D-05  .515363207436D+04
     .244784000000D+06  .558793544769D-08 -.657792768395D+00  .260770320892D-07
     .977484267960D+00  .209937500000D+03 -.631407323369D+00 -.771246411223D-08
    -.528593446610D-09  .100000000000D+01  .181100000000D+04  .000000000000D+00
     .240000000000D+01  .000000000000D+00 -.130385160446D-07  .100000000000D+02
     .237606000000D+06  .400000000000D+01
 1 14  9 23 20  0  0.0  .216020271182D-04  .454747350886D-12  .000000000000D+00
     .320000000000D+02 -.716562500000D+02  .452054544172D-08 -.312546150943D+01
    -.371970236301D-05  .353320781142D-02  .921823084354D-05  .515368031883D+04
     .244800000000D+06 -.856816768646D-07  .245828122206D+01 -.279396772385D-07
     .961453035258D+00  .203593750000D+03  .416350259688D+00 -.799676166865D-08
    -.400373820034D-09  .100000000000D+01  .181100000000D+04  .000000000000D+00
     .240000000000D+01  .000000000000D+00  .558793544769D-08  .320000000000D+02
     .237606000000D+06  .400000000000D+01
 2 14  9 23 20  0  0.0  .520161818713D-03  .216004991671D-11  .000000000000D+00
     .970000000000D+02 -.835000000000D+02  .501770900772D-08 -.241176889304D+01
    -.434368848801D-05  .137717593461D-01  .916980206966D-05  .515368695068D+04
     .244800000000D+06  .245869159698D-06  .242608437300D+01 -.175088644028D-06
     .939985664805D+00  .187250000000D+03 -.238563780705D+01 -.820641325862D-08
    -.353943314588D-09  .100000000000D+01  .181100000000D+04  .000000000000D+00
     .240000000000D+01  .000000000000D+00 -.200234353542D-07  .970000000000D+02
     .237606000000D+06  .400000000000D+01
 3 14  9 23 20  0  0.0 -.835375860333D-03 -.312638803734D-10  .000000000000D+00
     .940000000000D+02  .362500000000D+02  .408445584827D-08 -.903661661981D+00
     .198557972908D-05  .106787085533D-01  .119097530842D-04  .515371869659D+04
     .244800000000D+06 -.135973095894D-06  .257115191891D+00  .391155481339D-07
     .967704237817D+00  .157062500000D+03  .171698263638D+01 -.795926010656D-08
     .379658671450D-09  .100000000000D+01  .181100000000D+04  .000000000000D+00
     .965000000000D+01  .630000000000D+02 -.419095158577D-08  .940000000000D+02
     .237606000000D+06  .400000000000D+01
 4 14  9 23 20  0  0.0 -.946689397097D-06 -.341060513165D-12  .000000000000D+00
     .100000000000D+03 -.800625000000D+02  .502128058506D-08  .225881324311D+01
    -.426173210144D-05  .111055469606D-01  .873021781445D-05  .515199975204D+04
     .244800000000D+06 -.130385160446D-07  .244179138356D+01 -.204890966415D-06
     .939011683206D+00  .200437500000D+03  .107793202248D+01 -.817998358629D-08
    -.395016454021D-09  .100000000000D+01  .181100000000D+04  .000000000000D+00
     .340000000000D+01  .000000000000D+00 -.651925802231D-08  .100000000000D+03
     .237606000000D+06  .400000000000D+01
 5 14  9 23 20  0  0.0 -.336669385433D-03  .386535248253D-11  .000000000000D+00
     .920000000000D+02  .634687500000D+02  .473341145130D-08 -.422839281525D-01
     .323355197906D-05  .384064181708D-02  .108610838652D-04  .515369180679D+04
     .244800000000D+06  .353902578354D-07 -.278876975340D+01  .484287738800D-07
     .947415236173D+00  .160750000000D+03  .340560287829D+00 -.817676916669D-08
     .255367779950D-09  .100000000000D+01  .181100000000D+04  .000000000000D+00
     .240000000000D+01  .000000000000D+00 -.102445483208D-07  .920000000000D+02
     .237606000000D+06  .400000000000D+01
 6 14  9 23 20  0  0.0 -.398280099034D-05  .136424205266D-11  .000000000000D+00
     .710000000000D+02 -.717812500000D+02  .463269297026D-08 -.760416303420D-01
    -.360794365406D-05  .532745732926D-03  .933557748795D-05  .515360907555D+04
     .244800000000D+06  .298023223877D-07  .244972197950D+01  .726431608200D-07
     .961364280018D+00  .200437500000D+03  .212154520690D+01 -.810926635492D-08
    -.424660545959D-09  .100000000000D+01  .181100000000D+04  .000000000000D+00
     .240000000000D+01  .000000000000D+00  .465661287308D-08  .710000000000D+02
     .237606000000D+06  .400000000000D+01
 8 14  9 23 20  0  0.0  .156415626407D-04  .113686837722D-12  .000000000000D+00
     .101000000000D+03 -.671562500000D+02  .340942773064D-08  .275514145216D+01
    -.352412462234D-05  .146442691330D-01  .106003135443D-04  .515218463326D+04
     .244800000000D+06 -.149011611938D-06 -.562425909765D+00 -.130385160446D-06
     .996067237947D+00  .193375000000D+03 -.271136528174D+01 -.735673500897D-08
    -.390730561211D-09  .100000000000D+01  .181100000000D+04  .000000000000D+00
     .340000000000D+01  .000000000000D+00 -.419095158577D-08  .101000000000D+03
     .237606000000D+06  .400000000000D+01
